OBJECT_NAME,OBJECT_ID,EPOCH,MEAN_MOTION,ECCENTRICITY,INCLINATION,RA_OF_ASC_NODE,ARG_OF_PERICENTER,MEAN_ANOMALY,EPHEMERIS_TYPE,CLASSIFICATION_TYPE,NORAD_CAT_ID,ELEMENT_SET_NO,REV_AT_EPOCH,BSTAR,MEAN_MOTION_DOT,MEAN_MOTION_DDOT
TRITON-1,2013-066M,2026-06-16T06:47:01.056768,14.81701991,.0088445,97.8254,77.1109,236.9544,122.3151,0,U,39427,999,67395,.13075581E-3,.1043E-4,0
GOMX-1,2013-066Q,2026-06-16T07:13:05.035008,14.69457255,.01301785,97.6477,7.8198,80.3496,281.2389,0,U,39430,999,66978,.23141286E-3,.1511E-4,0
CUBEBUG-2 (LO-74),2013-066AA,2026-06-16T03:00:32.772384,14.93754109,.00584561,97.8908,116.0990,32.4816,327.9979,0,U,39440,999,67683,.37024098E-3,.3994E-4,0
NEE-02 KRYSAOR,2013-066AB,2026-06-15T12:38:09.714912,14.86612031,.00676896,97.8896,105.7532,75.5443,285.3271,0,U,39441,999,67595,.23065442E-3,.2075E-4,0
FUNCUBE-1 (AO-73),2013-066AE,2026-06-16T04:40:29.138016,15.09480360,.00355598,97.8274,138.6199,204.3953,155.5593,0,U,39444,999,67951,.35517351E-3,.5705E-4,0
UWE-3,2013-066AG,2026-06-15T09:51:46.833408,14.97011844,.00478551,97.8693,122.4726,327.0614,32.7628,0,U,39446,999,67731,.31228687E-3,.3615E-4,0
SMDC ONE 2.4,2013-072H,2026-06-16T06:43:09.001920,15.18166050,.01452093,120.4929,348.5806,18.0605,342.5558,0,U,39469,999,11769,.28591705E-3,.7344E-4,0
COSMOS 2488 (RODNIK-S 7),2013-076A,2026-06-16T07:31:14.323872,12.42905926,.00208562,82.4822,169.2393,97.1464,263.1988,0,U,39483,999,56578,.67625041E-4,.19E-6,0
COSMOS 2489 (RODNIK-S 8),2013-076B,2026-06-16T06:55:30.086688,12.42879610,.00226726,82.4859,170.6331,97.0909,263.2750,0,U,39484,999,56583,.10805896E-3,.25E-6,0
COSMOS 2490 (RODNIK-S 9),2013-076C,2026-06-16T06:15:01.224576,12.42878200,.00227197,82.4805,168.7184,112.0454,248.3042,0,U,39485,999,56576,-.4205316E-5,.9E-7,0
KAZEOSAT 1,2014-024A,2026-06-16T07:52:06.049920,14.42079294,.0001361,98.3211,239.7962,73.4956,286.6384,0,U,39731,999,63843,.13402881E-4,.1E-7,0
COSMOS 2496 (RODNIK-S 10),2014-028A,2026-06-16T07:09:46.538784,12.42878216,.00213428,82.4452,109.2879,80.6714,279.6778,0,U,39761,999,54740,-.41577405E-3,-.48E-6,0
COSMOS 2497 (RODNIK-S 11),2014-028B,2026-06-16T06:34:11.796960,12.42893876,.00219028,82.4499,110.9927,75.9887,284.3626,0,U,39762,999,54740,-.42509039E-3,-.49E-6,0
COSMOS 2498 (RODNIK-S 12),2014-028C,2026-06-16T07:57:56.439936,12.42980025,.00226269,82.4460,109.4439,75.4962,284.8626,0,U,39763,999,54744,-.16438885E-3,-.13E-6,0
HODOYOSHI-4,2014-033B,2026-06-16T07:03:58.699296,14.88126412,.00225559,97.5447,352.1602,311.7303,48.1985,0,U,40011,999,64867,.73505942E-4,.627E-5,0
UNISAT-6,2014-033C,2026-06-16T07:50:07.806336,14.88242939,.00462775,97.7877,320.0533,72.0524,288.5730,0,U,40012,999,64603,.2449184E-3,.225E-4,0
DEIMOS-2,2014-033D,2026-06-16T05:53:15.067392,14.93721313,.00014715,97.5830,41.7676,46.0473,314.0869,0,U,40013,999,63758,.89331269E-4,.891E-5,0
BUGSAT-1 (TITA),2014-033E,2026-06-16T05:51:17.794080,15.15579418,.00279341,98.0436,259.7370,181.4201,178.6956,0,U,40014,999,65569,.27971442E-3,.5284E-4,0
SAUDISAT 4,2014-033G,2026-06-16T07:22:30.949824,14.79543832,.00461767,97.7581,313.4724,76.7702,283.8655,0,U,40016,999,64594,.81373001E-4,.568E-5,0
APRIZESAT 9,2014-033J,2026-06-16T07:48:20.513952,14.74213513,.00656229,97.9059,300.5449,201.9666,157.8728,0,U,40018,999,64343,.94735912E-4,.594E-5,0
BRITE-CA1 (TORONTO),2014-033L,2026-06-16T06:58:10.073568,14.72675645,.00772295,97.9738,296.2348,279.9438,79.3059,0,U,40020,999,64208,.99119203E-4,.607E-5,0
