TRITON-1                
1 39427U 13066M   26167.28265112  .00001043  00000+0  13076-3 0  9997
2 39427  97.8254  77.1109 0088445 236.9544 122.3151 14.81701991673955
GOMX-1                  
1 39430U 13066Q   26167.30075272  .00001511  00000+0  23141-3 0  9994
2 39430  97.6477   7.8198 0130178  80.3496 281.2389 14.69457255669781
CUBEBUG-2 (LO-74)       
1 39440U 13066AA  26167.12537931  .00003994  00000+0  37024-3 0  9992
2 39440  97.8908 116.0990 0058456  32.4816 327.9979 14.93754109676830
NEE-02 KRYSAOR          
1 39441U 13066AB  26166.52650133  .00002075  00000+0  23065-3 0  9995
2 39441  97.8896 105.7532 0067689  75.5443 285.3271 14.86612031675959
FUNCUBE-1 (AO-73)       
1 39444U 13066AE  26167.19478169  .00005705  00000+0  35517-3 0  9997
2 39444  97.8274 138.6199 0035559 204.3953 155.5593 15.09480360679510
UWE-3                   
1 39446U 13066AG  26166.41095872  .00003615  00000+0  31229-3 0  9993
2 39446  97.8693 122.4726 0047855 327.0614  32.7628 14.97011844677317
SMDC ONE 2.4            
1 39469U 13072H   26167.27996530  .00007344  00000+0  28592-3 0  9993
2 39469 120.4929 348.5806 0145209  18.0605 342.5558 15.18166050117694
COSMOS 2488 (RODNIK-S 7)
1 39483U 13076A   26167.31336023  .00000019  00000+0  67625-4 0  9996
2 39483  82.4822 169.2393 0020856  97.1464 263.1988 12.42905926565788
COSMOS 2489 (RODNIK-S 8)
1 39484U 13076B   26167.28854267  .00000025  00000+0  10806-3 0  9993
2 39484  82.4859 170.6331 0022672  97.0909 263.2750 12.42879610565832
COSMOS 2490 (RODNIK-S 9)
1 39485U 13076C   26167.26043084  .00000009  00000+0 -42053-5 0  9993
2 39485  82.4805 168.7184 0022719 112.0454 248.3042 12.42878200565767
KAZEOSAT 1              
1 39731U 14024A   26167.32784780  .00000001  00000+0  13403-4 0  9990
2 39731  98.3211 239.7962 0001361  73.4956 286.6384 14.42079294638435
COSMOS 2496 (RODNIK-S *)
1 39761U 14028A   26167.29845531 -.00000048  00000+0 -41577-3 0  9990
2 39761  82.4452 109.2879 0021342  80.6714 279.6778 12.42878216547404
COSMOS 2497 (RODNIK-S *)
1 39762U 14028B   26167.27374765 -.00000049  00000+0 -42509-3 0  9992
2 39762  82.4499 110.9927 0021902  75.9887 284.3626 12.42893876547403
COSMOS 2498 (RODNIK-S *)
1 39763U 14028C   26167.33190324 -.00000013  00000+0 -16439-3 0  9991
2 39763  82.4460 109.4439 0022626  75.4962 284.8626 12.42980025547448
HODOYOSHI-4             
1 40011U 14033B   26167.29442939  .00000627  00000+0  73506-4 0  9990
2 40011  97.5447 352.1602 0022555 311.7303  48.1985 14.88126412648673
UNISAT-6                
1 40012U 14033C   26167.32647924  .00002250  00000+0  24492-3 0  9999
2 40012  97.7877 320.0533 0046277  72.0524 288.5730 14.88242939646038
DEIMOS-2                
1 40013U 14033D   26167.24531328  .00000891  00000+0  89331-4 0  9994
2 40013  97.5830  41.7676 0001471  46.0473 314.0869 14.93721313637584
BUGSAT-1 (TITA)         
1 40014U 14033E   26167.24395595  .00005284  00000+0  27971-3 0  9991
2 40014  98.0436 259.7370 0027934 181.4201 178.6956 15.15579418655695
SAUDISAT 4              
1 40016U 14033G   26167.30730266  .00000568  00000+0  81373-4 0  9995
2 40016  97.7581 313.4724 0046176  76.7702 283.8655 14.79543832645948
APRIZESAT 9             
1 40018U 14033J   26167.32523743  .00000594  00000+0  94736-4 0  9995
2 40018  97.9059 300.5449 0065622 201.9666 157.8728 14.74213513643439
BRITE-CA1 (TORONTO)     
1 40020U 14033L   26167.29039437  .00000607  00000+0  99119-4 0  9991
2 40020  97.9738 296.2348 0077229 279.9438  79.3059 14.72675645642084
